start=new Date('2021-12-08T00:00:00.000Z').valueOf();
sats=[{"OBJECT_ID":"2020-057AX","MEAN_ANOMALY":"291.0473","OBJECT_NAME":"STARLINK-1603","EPOCH":"2021-12-07T14:53:40.476768","RA_OF_ASC_NODE":"68.6103","REV_AT_EPOCH":"7352","TIME_SYSTEM":"UTC","RCS_SIZE":"LARGE","DECAY_DATE":null,"SITE":"AFETR","COUNTRY_CODE":"US","MEAN_ELEMENT_THEORY":"SGP4","REF_FRAME":"TEME","CENTER_NAME":"EARTH","TLE_LINE2":"2 46162  53.0547  68.6103 0001330  69.0658 291.0473 15.06391624 73520","APOAPSIS":"548.160","FILE":"3235143","LAUNCH_DATE":"2020-08-18","EPHEMERIS_TYPE":"0","MEAN_MOTION_DDOT":"0.0000000000000","ELEMENT_SET_NO":"999","GP_ID":"191297633","SEMIMAJOR_AXIS":"6925.374","ECCENTRICITY":"0.00013300","TLE_LINE1":"1 46162U 20057AX  21341.62060737 -.00000869  00000-0 -39440-4 0  9994","NORAD_CAT_ID":"46162","OBJECT_TYPE":"PAYLOAD","INCLINATION":"53.0547","MEAN_MOTION":"15.06391624","ARG_OF_PERICENTER":"69.0658","BSTAR":"-0.00003944000000","PERIAPSIS":"546.318","PERIOD":"95.593","CLASSIFICATION_TYPE":"U","MEAN_MOTION_DOT":"-0.00000869"},{"SITE":"AFETR","RCS_SIZE":"LARGE","DECAY_DATE":null,"MEAN_ELEMENT_THEORY":"SGP4","REF_FRAME":"TEME","COUNTRY_CODE":"US","OBJECT_NAME":"STARLINK-1610","OBJECT_ID":"2020-057AY","MEAN_ANOMALY":"284.5030","RA_OF_ASC_NODE":"49.2314","TIME_SYSTEM":"UTC","REV_AT_EPOCH":"7252","EPOCH":"2021-12-07T11:39:56.388384","MEAN_MOTION_DDOT":"0.0000000000000","EPHEMERIS_TYPE":"0","FILE":"3234816","CENTER_NAME":"EARTH","TLE_LINE2":"2 46163  53.0566  49.2314 0001481  75.6123 284.5030 15.06395310 72529","APOAPSIS":"548.254","LAUNCH_DATE":"2020-08-18","OBJECT_TYPE":"PAYLOAD","ELEMENT_SET_NO":"999","GP_ID":"191270172","NORAD_CAT_ID":"46163","SEMIMAJOR_AXIS":"6925.363","TLE_LINE1":"1 46163U 20057AY  21341.48606931 -.00000109  00000-0  11586-4 0  9998","ECCENTRICITY":"0.00014810","PERIAPSIS":"546.202","PERIOD":"95.592","CLASSIFICATION_TYPE":"U","MEAN_MOTION_DOT":"-0.00000109","MEAN_MOTION":"15.06395310","INCLINATION":"53.0566","BSTAR":"0.00001158600000","ARG_OF_PERICENTER":"75.6123"},{"ECCENTRICITY":"0.00013390","TLE_LINE1":"1 46164U 20057AZ  21341.61508205 -.00000232  00000-0  33122-5 0  9997","SEMIMAJOR_AXIS":"6925.381","NORAD_CAT_ID":"46164","GP_ID":"191297135","ELEMENT_SET_NO":"999","OBJECT_TYPE":"PAYLOAD","ARG_OF_PERICENTER":"72.0549","BSTAR":"0.00000331220000","INCLINATION":"53.0551","MEAN_MOTION":"15.06389438","MEAN_MOTION_DOT":"-0.00000232","PERIOD":"95.593","CLASSIFICATION_TYPE":"U","PERIAPSIS":"546.319","EPOCH":"2021-12-07T14:45:43.089120","REV_AT_EPOCH":"7380","TIME_SYSTEM":"UTC","RA_OF_ASC_NODE":"48.6478","MEAN_ANOMALY":"288.0585","OBJECT_ID":"2020-057AZ","OBJECT_NAME":"STARLINK-1612","COUNTRY_CODE":"US","REF_FRAME":"TEME","MEAN_ELEMENT_THEORY":"SGP4","DECAY_DATE":null,"RCS_SIZE":"LARGE","SITE":"AFETR","LAUNCH_DATE":"2020-08-18","TLE_LINE2":"2 46164  53.0551  48.6478 0001339  72.0549 288.0585 15.06389438 73803","APOAPSIS":"548.173","CENTER_NAME":"EARTH","FILE":"3235143","EPHEMERIS_TYPE":"0","MEAN_MOTION_DDOT":"0.0000000000000"},{"CENTER_NAME":"EARTH","TLE_LINE2":"2 46165  53.0528  87.9942 0001471  88.1961 271.9197 15.06491180 72002","APOAPSIS":"547.953","FILE":"3235143","LAUNCH_DATE":"2020-08-18","EPHEMERIS_TYPE":"0","MEAN_MOTION_DDOT":"0.0000000000000","OBJECT_ID":"2020-057BA","MEAN_ANOMALY":"271.9197","OBJECT_NAME":"STARLINK-1613","EPOCH":"2021-12-07T18:12:16.763040","RA_OF_ASC_NODE":"87.9942","REV_AT_EPOCH":"7200","TIME_SYSTEM":"UTC","DECAY_DATE":null,"RCS_SIZE":"LARGE","SITE":"AFETR","COUNTRY_CODE":"US","MEAN_ELEMENT_THEORY":"SGP4","REF_FRAME":"TEME","INCLINATION":"53.0528","MEAN_MOTION":"15.06491180","ARG_OF_PERICENTER":"88.1961","BSTAR":"0.00029633000000","PERIAPSIS":"545.915","CLASSIFICATION_TYPE":"U","PERIOD":"95.586","MEAN_MOTION_DOT":"0.00004146","ELEMENT_SET_NO":"999","GP_ID":"191297386","SEMIMAJOR_AXIS":"6925.069","TLE_LINE1":"1 46165U 20057BA  21341.75852735  .00004146  00000-0  29633-3 0  9990","ECCENTRICITY":"0.00014710","NORAD_CAT_ID":"46165","OBJECT_TYPE":"PAYLOAD"},{"CENTER_NAME":"EARTH","TLE_LINE2":"2 46166  53.0551  88.4042 0001243  90.6148 269.4983 15.06390992 71999","APOAPSIS":"548.102","FILE":"3235143","LAUNCH_DATE":"2020-08-18","EPHEMERIS_TYPE":"0","MEAN_MOTION_DDOT":"0.0000000000000","OBJECT_ID":"2020-057BB","MEAN_ANOMALY":"269.4983","OBJECT_NAME":"STARLINK-1615","EPOCH":"2021-12-07T16:00:01.388736","RA_OF_ASC_NODE":"88.4042","TIME_SYSTEM":"UTC","REV_AT_EPOCH":"7199","DECAY_DATE":null,"RCS_SIZE":"LARGE","SITE":"AFETR","COUNTRY_CODE":"US","MEAN_ELEMENT_THEORY":"SGP4","REF_FRAME":"TEME","INCLINATION":"53.0551","MEAN_MOTION":"15.06390992","ARG_OF_PERICENTER":"90.6148","BSTAR":"-0.00001758200000","PERIAPSIS":"546.380","CLASSIFICATION_TYPE":"U","PERIOD":"95.593","MEAN_MOTION_DOT":"-0.00000543","ELEMENT_SET_NO":"999","GP_ID":"191298134","SEMIMAJOR_AXIS":"6925.376","ECCENTRICITY":"0.00012430","TLE_LINE1":"1 46166U 20057BB  21341.66668274 -.00000543  00000-0 -17582-4 0  9994","NORAD_CAT_ID":"46166","OBJECT_TYPE":"PAYLOAD"},{"ARG_OF_PERICENTER":"87.7214","BSTAR":"0.00012319000000","INCLINATION":"53.0556","MEAN_MOTION":"15.06393706","PERIOD":"95.593","CLASSIFICATION_TYPE":"U","MEAN_MOTION_DOT":"0.00001554","PERIAPSIS":"546.429","SEMIMAJOR_AXIS":"6925.368","TLE_LINE1":"1 46167U 20057BC  21341.68142092  .00001554  00000-0  12319-3 0  9995","ECCENTRICITY":"0.00011610","NORAD_CAT_ID":"46167","ELEMENT_SET_NO":"999","GP_ID":"191298388","OBJECT_TYPE":"PAYLOAD","LAUNCH_DATE":"2020-08-18","CENTER_NAME":"EARTH","TLE_LINE2":"2 46167  53.0556  88.3508 0001161  87.7214 272.3908 15.06393706 71997","APOAPSIS":"548.037","FILE":"3235143","EPHEMERIS_TYPE":"0","MEAN_MOTION_DDOT":"0.0000000000000","EPOCH":"2021-12-07T16:21:14.767488","RA_OF_ASC_NODE":"88.3508","REV_AT_EPOCH":"7199","TIME_SYSTEM":"UTC","OBJECT_ID":"2020-057BC","MEAN_ANOMALY":"272.3908","OBJECT_NAME":"STARLINK-1626","COUNTRY_CODE":"US","MEAN_ELEMENT_THEORY":"SGP4","REF_FRAME":"TEME","RCS_SIZE":"LARGE","DECAY_DATE":null,"SITE":"AFETR"},{"MEAN_MOTION_DDOT":"0.0000000000000","EPHEMERIS_TYPE":"0","FILE":"3235143","TLE_LINE2":"2 46168  53.0561  38.7714 0001331  68.7605 291.3526 15.06393305 72672","APOAPSIS":"548.156","CENTER_NAME":"EARTH","LAUNCH_DATE":"2020-08-18","SITE":"AFETR","DECAY_DATE":null,"RCS_SIZE":"LARGE","REF_FRAME":"TEME","MEAN_ELEMENT_THEORY":"SGP4","COUNTRY_CODE":"US","OBJECT_NAME":"STARLINK-1627","MEAN_ANOMALY":"291.3526","OBJECT_ID":"2020-057BD","REV_AT_EPOCH":"7267","TIME_SYSTEM":"UTC","RA_OF_ASC_NODE":"38.7714","EPOCH":"2021-12-07T14:03:13.638528","PERIAPSIS":"546.312","MEAN_MOTION_DOT":"0.00001071","PERIOD":"95.593","CLASSIFICATION_TYPE":"U","MEAN_MOTION":"15.06393305","INCLINATION":"53.0561","BSTAR":"0.00009078200000","ARG_OF_PERICENTER":"68.7605","OBJECT_TYPE":"PAYLOAD","GP_ID":"191296635","ELEMENT_SET_NO":"999","NORAD_CAT_ID":"46168","TLE_LINE1":"1 46168U 20057BD  21341.58557452  .00001071  00000-0  90782-4 0  9990","ECCENTRICITY":"0.00013310","SEMIMAJOR_AXIS":"6925.369"},{"APOAPSIS":"550.719","TLE_LINE2":"2 46169  53.0005  88.1221 0001415  92.1259 267.9891 15.05576517 71970","CENTER_NAME":"EARTH","FILE":"3235143","LAUNCH_DATE":"2020-08-18","EPHEMERIS_TYPE":"0","MEAN_MOTION_DDOT":"0.0000000000000","MEAN_ANOMALY":"267.9891","OBJECT_ID":"2020-057BE","OBJECT_NAME":"STARLINK-1628","EPOCH":"2021-12-07T17:29:15.111168","REV_AT_EPOCH":"7197","TIME_SYSTEM":"UTC","RA_OF_ASC_NODE":"88.1221","RCS_SIZE":"LARGE","DECAY_DATE":null,"SITE":"AFETR","COUNTRY_CODE":"US","REF_FRAME":"TEME","MEAN_ELEMENT_THEORY":"SGP4","INCLINATION":"53.0005","MEAN_MOTION":"15.05576517","ARG_OF_PERICENTER":"92.1259","BSTAR":"-0.00001203500000","PERIAPSIS":"548.758","MEAN_MOTION_DOT":"-0.00000455","PERIOD":"95.644","CLASSIFICATION_TYPE":"U","GP_ID":"191297887","ELEMENT_SET_NO":"999","TLE_LINE1":"1 46169U 20057BE  21341.72864712 -.00000455  00000-0 -12035-4 0  9999","ECCENTRICITY":"0.00014150","SEMIMAJOR_AXIS":"6927.874","NORAD_CAT_ID":"46169","OBJECT_TYPE":"PAYLOAD"},{"OBJECT_TYPE":"PAYLOAD","NORAD_CAT_ID":"46171","ECCENTRICITY":"0.00011900","TLE_LINE1":"1 46171U 20057BG  21341.65745943 -.00000949  00000-0 -44827-4 0  9990","SEMIMAJOR_AXIS":"6925.325","GP_ID":"191274141","ELEMENT_SET_NO":"999","MEAN_MOTION_DOT":"-0.00000949","PERIOD":"95.592","CLASSIFICATION_TYPE":"U","PERIAPSIS":"546.366","BSTAR":"-0.00004482700000","ARG_OF_PERICENTER":"72.1594","MEAN_MOTION":"15.06407594","INCLINATION":"53.0552","REF_FRAME":"TEME","MEAN_ELEMENT_THEORY":"SGP4","COUNTRY_CODE":"US","SITE":"AFETR","RCS_SIZE":"LARGE","DECAY_DATE":null,"TIME_SYSTEM":"UTC","REV_AT_EPOCH":"7292","RA_OF_ASC_NODE":"68.4492","EPOCH":"2021-12-07T15:46:44.494752","OBJECT_NAME":"STARLINK-1633","MEAN_ANOMALY":"287.9524","OBJECT_ID":"2020-057BG","MEAN_MOTION_DDOT":"0.0000000000000","EPHEMERIS_TYPE":"0","LAUNCH_DATE":"2020-08-18","FILE":"3234885","TLE_LINE2":"2 46171  53.0552  68.4492 0001190  72.1594 287.9524 15.06407594 72921","APOAPSIS":"548.014","CENTER_NAME":"EARTH"},{"EPHEMERIS_TYPE":"0","MEAN_MOTION_DDOT":"0.0000000000000","LAUNCH_DATE":"2020-08-18","APOAPSIS":"548.141","TLE_LINE2":"2 46172  53.0558  68.9895 0001314  64.7108 295.4017 15.06394361 72902","CENTER_NAME":"EARTH","FILE":"3234885","COUNTRY_CODE":"US","REF_FRAME":"TEME","MEAN_ELEMENT_THEORY":"SGP4","DECAY_DATE":null,"RCS_SIZE":"LARGE","SITE":"AFETR","EPOCH":"2021-12-07T12:56:54.177216","TIME_SYSTEM":"UTC","REV_AT_EPOCH":"7290","RA_OF_ASC_NODE":"68.9895","MEAN_ANOMALY":"295.4017","OBJECT_ID":"2020-057BH","OBJECT_NAME":"STARLINK-1635","MEAN_MOTION_DOT":"-0.00000053","CLASSIFICATION_TYPE":"U","PERIOD":"95.592","PERIAPSIS":"546.321","ARG_OF_PERICENTER":"64.7108","BSTAR":"0.00001532000000","INCLINATION":"53.0558","MEAN_MOTION":"15.06394361","OBJECT_TYPE":"PAYLOAD","ECCENTRICITY":"0.00013140","TLE_LINE1":"1 46172U 20057BH  21341.53951594 -.00000053  00000-0  15320-4 0  9990","SEMIMAJOR_AXIS":"6925.366","NORAD_CAT_ID":"46172","GP_ID":"191274143","ELEMENT_SET_NO":"999"}];
